SL-8 R/B                
1 11574U 79089B   26065.27753501  .00000362  00000+0  11727-3 0  9991
2 11574  74.0671  97.3610 0017146 270.3782  89.5410 14.42348070435618
SL-14 R/B               
1 11672U 80005B   26065.17061581  .00000778  00000+0  76182-4 0  9997
2 11672  82.5152 310.5743 0015880 169.7048 190.4500 14.90925667475961
SL-8 R/B                
1 12139U 81003B   26065.09315495  .00020037  00000+0  51596-3 0  9993
2 12139  82.9382 293.3501 0262541 191.1298 168.4063 15.10802212314136
SL-3 R/B                
1 12465U 81046B   26065.21530190  .00013023  00000+0  30376-3 0  9997
2 12465  81.2300 293.9167 0019834  34.1350 326.1163 15.41884845437893
SL-3 R/B                
1 12904U 81103B   26065.28641074  .00007342  00000+0  32625-3 0  9996
2 12904  81.1584 217.4240 0012492 298.7704  61.2272 15.21326452972717
SL-3 R/B                
1 13068U 82013B   26065.23016330  .00006327  00000+0  27438-3 0  9993
2 13068  81.1765 164.8242 0022428 188.9455 171.1381 15.21972828403827
SL-3 R/B                
1 13154U 82039B   26065.21117419  .00003583  00000+0  21658-3 0  9994
2 13154  81.1583 219.9721 0029815 335.7740  24.2081 15.10055979381110
SL-3 R/B                
1 13403U 82079B   26065.32004288  .00008493  00000+0  33901-3 0  9995
2 13403  81.1477 197.0545 0024901 175.9353 184.2088 15.24736254377187
SL-14 R/B               
1 13553U 82092B   26065.27797814  .00000654  00000+0  70758-4 0  9997
2 13553  82.5700 144.5903 0019204 315.6120 104.2493 14.86662436328429
SL-3 R/B                
1 13819U 83010B   26065.26654981  .00019712  00000+0  39772-3 0  9994
2 13819  81.1067   6.4427 0018308  62.0592 298.2503 15.46205289357415
SL-3 R/B                
1 14208U 83075B   26065.30470767  .00013221  00000+0  34990-3 0  9997
2 14208  97.6139  69.7536 0019859 239.0613 120.8680 15.38317076329633
COSMOS 1536             
1 14699U 84013A   26065.17387279  .00005924  00000+0  24447-3 0  9991
2 14699  82.5431 111.3455 0012700 297.3228  62.6715 15.23769248272080
SL-14 R/B               
1 14820U 84027B   26064.98958520  .00000591  00000+0  64758-4 0  9998
2 14820  82.5381 248.4839 0017675 350.5336   9.5544 14.85971460247086
SL-8 R/B                
1 15483U 85006B   26065.05053487  .00000190  00000+0  71656-4 0  9999
2 15483  74.0433 267.8456 0018589 186.5184 290.0064 14.37779346153502
SL-12 R/B(2)            
1 15772U 85042D   26065.24932168  .00000099  00000+0  65894-4 0  9998
2 15772  71.1063  94.9980 0033401 133.7852 298.0198 14.21981493113904
SL-14 R/B               
1 15945U 85069B   26065.31207503  .00000780  00000+0  85336-4 0  9995
2 15945  82.5279  28.1085 0018169 199.1044 160.9494 14.86428553172331
SL-16 R/B               
1 16182U 85097B   26065.24446145 -.00000116  00000+0 -34292-4 0  9999
2 16182  71.0034 147.8072 0009966 263.9336 158.8528 14.16599610 86740
